Domaine,Vignoble,Adresse,lon,lat,Site,image
Pierre Amiot & Fils,Bourgogne - Côte de Nuits,27 Grande Rue 21220 Morey-Saint-Denis,4.96401,47.19503,http://www.domainepierreamiot.fr/,
Domaine Bertagna,Bourgogne - Côte de Nuits,16 rue du Vieux-Château 21640 Vougeot,,,http://www.domainebertagna.com,
Hervé Roumier,Bourgogne - Côte de Nuits,8 rue de Vergy 21220 Chambolle-Musigny,,,,
Rapet Père et Fils,Bourgogne - Côte de Beaune,2 place de la mairie 21420 Pernand-Vergelesses,,,http://www.domaine-rapet.com/,
Michel Prunier et Fille,Bourgogne - Côte de Beaune,Route de Beaune 21190 Auxey Duresses,,,http://www.domainemichelprunieretfille.com,
Bernard Battault,Bourgogne - Côte de Beaune,Rue des étoiles 21190 Auxey Duresses,,,,
Domaine Gacon Moingeon,Bourgogne - Côte de Beaune,3 rue de Poiseul 21190 Puligny-Montrachet,,,http://domaine-gacon-moingeon.com/,https://vertdevin.com/wp-content/uploads/2015/01/vertdevin-Domaine-Y-Gacon-Moingeon-2013-Les-Meix-Puligny-Montrachet.jpg
Cave d'Irouléguy,Sud-Ouest,Route de Saint-Jean-Pied-de-Port 64430 Saint-Étienne-de-Baïgorry,,,http://www.cave-irouleguy.com/fr/,
Domaine des Valettes,Val de Loire - Touraine,3 rue de la Maladrie 37140 Saint Nicolas de Bourgueuil,0.07847,47.285298,http://www.les-vallettes.com/,
Yannick Amirault,Val de Loire - Touraine,5 pavillon du Grand Clos 37140 Bourgueil,,,http://yannickamirault.fr/,https://cave-ruthene.com/789-large_default/yannick-amirault-la-source-.jpg
Château de Villeneuve,Val de Loire - Anjou,Château de Villeneuve 49400 Souzay-Champigny,,,http://www.chateau-de-villeneuve.com/,
Château du Breuil,Val de Loire - Anjou,Route de Rochefort sur Loire 49750 Beaulieu sur Layon,,,http://www.chateaudubreuil.eu/,
Château Pierre Bise,Val de Loire - Anjou,1 impasse du Chanoine de Douves 49750 Beaulieu sur Layon,,,,
Domaine Bonserine,Côtes du Rhône septentrionales,2 Chemin de la Vialliere 69420 Ampuis,,,http://domainedebonserine.fr/,
De Boisseyt-Chol,Côtes du Rhône septentrionales,Les Prairies 42410 Chavanay,,,http://www.deboisseyt-chol.com/,
Domaine Faury,Côtes du Rhône septentrionales,La Ribaudy 42410 Chavanay,,,http://www.domaine-faury.fr/,
Domaine Michelas Saint Jemms,Côtes du Rhône septentrionales,557 route de bellevue 26600 Mercurol,,,http://www.michelas-st-jemms.fr/,
Cave de Tain,Côtes du Rhône septentrionales,22 Route de Larnage 26600 Tain-l'Hermitage,,,http://www.cavedetain.com/,
Château de Chamilly,Bourgogne - Côte chalonnaise,7 Allée du Château 71510 Chamilly,,,http://www.chateaudechamilly.com/,
Domaine de Fussiacus,Bourgogne - Mâconnais,9 Lotissement Mollards 71960 Fuissé,,,http://www.fussiacus.com,
Domaine François Raquillet,Bourgogne - Côte chalonnaise,19 rue de Jamproyes 71640 Mercurey,,,http://www.domaine-raquillet.com/,https://pbs.twimg.com/media/C5GYCBMWEAECNht?format=jpg&name=4096x4096
Domaine Besson,Bourgogne - Côte chalonnaise,9 rue des Bois Chevaux 71640 Givry,,,http://www.domaine-besson-givry.com,
Bret Brothers,Bourgogne - Mâconnais,,4.764924,46.2705,http://www.bretbrothers.com/,
Domaine Richou,Val de Loire - Anjou,Route de Denée 49610 Mozé sur Louet,,,http://www.domainerichou.fr/,
Seppi Landmann,Alsace,20 rue de la Vallée 68570 Soultzmatt,,,http://www.seppi-landmann.fr/,
Oratoire Saint Martin,Côtes du Rhône méridionales,84290 Cairanne,,,http://www.oratoiresaintmartin.fr/,
Château La Nerthe,Côtes du Rhône méridionales,Route de Sorgues 84230 Châteauneuf-du-Pape,,,http://www.chateaulanerthe.fr/,
Château Mont-Redon,Côtes du Rhône méridionales,Mont Redon 84230 Châteauneuf-du-Pape,,,http://www.chateaumontredon.com/,
Domaine de Durban,Côtes du Rhône méridionales,Domaine de Durban 84190 Beaumes-de-Venise,,,http://www.domainedurban.com/,
Domaine Montirius,Côtes du Rhône méridionales,1536 route de sainte Edwige 84260 Sarrians,,,http://www.montirius.com/,
Domaine La Fourmone,Côtes du Rhône méridionales,Route de Bollène 84190 Vacqueyras,,,http://www.domaine-la-fourmone.com/,
Domaine de la Charbonnière,Côtes du Rhône méridionales,Route de Courthezon 84230 Châteauneuf-du-Pape,4.843209,44.063269,http://www.domainedelacharbonniere.com/,
Philippe Rossignol,Bourgogne - Côte de Nuits,59 avenue de la Gare 21220 Gevrey-Chambertin,,,,
Georges Lignier et Fils,Bourgogne - Côte de Nuits,41 Gr Grande Rue 21220 Morey-Saint-Denis,,,,
Philippe Girard,Bourgogne - Côte de Beaune,37 rue Général Leclerc 21420 Savigny-lès-Beaune,,,http://www.domaine-philippe-girard.com/,
Domaine Monthelie Douhairet Porcheret,Bourgogne - Côte de Beaune,1 rue Cadette 21190 Monthelie,,,http://www.domainemontheliedouhairet.com/,
Monmousseau,Val de Loire - Touraine,71 rue de Vierzon 41400 Montrichard,,,http://www.monmousseau.com/,
Crillon Moine,Vosges,Rasey 88220 Xertigny,,,http://www.crillon-moine.fr/,
Domaine Jacqueson,Bourgogne - Côte chalonnaise,12 rue Saint Laurent 71150 Rully,,,http://www.domainejacqueson.fr/,
François Lumpp,Bourgogne - Côte chalonnaise,Le Pied du Clou - 36 Avenue de Mortières 71640 Givry,,,http://www.francoislumpp.com/,
Château Fuissé,Bourgogne - Mâconnais,Château de Fuissé 71960 Fuissé,,,http://chateau-fuisse.fr/,
Paul Janin et Fils,Beaujolais,La Chanilière 71570 Romanèche-Thorins,,,http://www.domaine-paul-janin.fr/,
Domaine de Thulon,Beaujolais,Thulon 69430 Lantignié,,,http://thulon.com/,
Julien Duport,Beaujolais,Brouilly 69220 Odenas,,,,
François Merlin,Côtes du Rhône septentrionales,Impasse du Bardoux 42140 Saint-Michel-sur-Rhône,,,,
Yves Cuilleron,Côtes du Rhône septentrionales,58 RN86 42410 Chavanay,,,http://www.cuilleron.com,
Domaine Combier,Côtes du Rhône septentrionales,RN 7 26600 Pont de l’Isère,,,http://www.domaine-combier.com,
Domaine du Tunnel,Côtes du Rhône septentrionales,20 rue de la republique 07130 Saint Peray,,,,
Domaine des Rémizières,Côtes du Rhône septentrionales,Avenue du Vercors 26600 Mercurol,,,http://www.domaineremizieres.com/fr/,
Domaine Huet,Val de Loire - Touraine,11 Rue de la Croix Buisée 37210 Vouvray,,,http://www.domainehuet.com,
François Chidaine,Val de Loire - Touraine,30 quai Albert Baillet 37270 Montlouis-sur-Loire,,,http://www.francois-chidaine.com/accueil/,
Charles Joguet,Val de Loire - Touraine,La Dioterie 37220 Sazilly,,,http://www.charlesjoguet.com/,,
Domaine de la Perruche,Val de Loire - Anjou,29 Rue de la Maumenière 49730 Montsoreau,,,http://www.domainedelaperruche.com/,
Domaine des Amandiers,Val de Loire - Anjou,11 rue Château Gaillard 49730 Turquant,,,http://www.domaine-des-amandiers.com/,
Domaine de la Mordorée,Côtes du Rhône méridionales,250 Chemin des Oliviers 30126 Tavel,,,http://www.domaine-mordoree.com/,https://static.millesima.com/s3/attachements/h1000px/F337_2018NM_c.png
Domaine Dominique Lahaye,Bourgogne - Côte de Beaune,2 Rue de Francorchamps 21630 Pommard,,,,,
Château Les Bertrands,Bordeaux - Blayais et Bourgeais,7 Rue Les Bertrands-Nord 33860 Reignac,,,http://www.chateaulesbertrands.com/fr/,,
Château Cailletau - Bergeron,Bordeaux - Blayais et Bourgeais,24 Bergeron 33390 Mazion,,,http://www.cailleteau-bergeron.com/accueil/,,
Château Canon St-Michel,Bordeaux - Libournais,2 La marche 33126 Fronsac,,,http://www.vins-millaire.fr/,,
Château Champion,Bordeaux - Libournais,Château Champion 33330 Saint-Christophe-des-Bardes,,,https://chateau-champion.com/,,
Château La Rose Côtes Rol,Bordeaux - Libournais,1 Lagarde 33330 Saint-Émilion,,,http://www.larosecotesrol.fr/,,
Château Chevrol Bel Air,Bordeaux - Libournais,26 Rue de la Mairie 33500 Néac,,,http://www.chevrolbelair.fr/,,
Domaine Richaud,Côtes du Rhône méridionales,470 Route de Vaison La Romaine 84290 Cairanne,,,,,
Domaine Mathias,Bourgogne - Mâconnais,225 Rue Saint-Vincent 71570 Chaintré,,,https://www.domaine-mathias.fr/,,